{
    "type":  "Feature",
    "bbox":  [
                 17.9914981,
                 59.3654089,
                 18.1224934,
                 59.4413844
             ],
    "properties":  {
                       "id":  "SE:municipality:danderyd",
                       "countryCode":  "SE",
                       "municipalityCode":  "0162",
                       "name":  "Danderyd",
                       "slug":  "danderyd",
                       "source":  "OpenStreetMap boundary relation via Nominatim polygon_geojson",
                       "license":  "ODbL-1.0",
                       "licence":  "Data © OpenStreetMap contributors, ODbL 1.0. http://osm.org/copyright",
                       "osmType":  "relation",
                       "osmId":  398034,
                       "displayName":  "Danderyds kommun, Stockholms län, Sverige"
                   },
    "geometry":  {
                     "type":  "Polygon",
                     "coordinates":  [
                                         [
                                             [
                                                 17.9914981,
                                                 59.4179316
                                             ],
                                             [
                                                 17.9932488,
                                                 59.4156302
                                             ],
                                             [
                                                 17.9939246,
                                                 59.4131917
                                             ],
                                             [
                                                 17.9985468,
                                                 59.4101403
                                             ],
                                             [
                                                 17.9979895,
                                                 59.4087569
                                             ],
                                             [
                                                 17.9983132,
                                                 59.4074372
                                             ],
                                             [
                                                 18.000025,
                                                 59.4036427
                                             ],
                                             [
                                                 18.0041972,
                                                 59.4008787
                                             ],
                                             [
                                                 18.0058688,
                                                 59.3998065
                                             ],
                                             [
                                                 18.0069908,
                                                 59.3992566
                                             ],
                                             [
                                                 18.0136463,
                                                 59.3981415
                                             ],
                                             [
                                                 18.0158742,
                                                 59.3962225
                                             ],
                                             [
                                                 18.0169629,
                                                 59.3935956
                                             ],
                                             [
                                                 18.0206443,
                                                 59.3907493
                                             ],
                                             [
                                                 18.0265389,
                                                 59.3904521
                                             ],
                                             [
                                                 18.030476,
                                                 59.3874096
                                             ],
                                             [
                                                 18.0314167,
                                                 59.3869184
                                             ],
                                             [
                                                 18.0327782,
                                                 59.3861995
                                             ],
                                             [
                                                 18.0408021,
                                                 59.3834115
                                             ],
                                             [
                                                 18.0433941,
                                                 59.3824592
                                             ],
                                             [
                                                 18.0440751,
                                                 59.3822313
                                             ],
                                             [
                                                 18.0445405,
                                                 59.3820713
                                             ],
                                             [
                                                 18.0455321,
                                                 59.3817359
                                             ],
                                             [
                                                 18.0467005,
                                                 59.3813626
                                             ],
                                             [
                                                 18.0488682,
                                                 59.3804955
                                             ],
                                             [
                                                 18.0501861,
                                                 59.3798466
                                             ],
                                             [
                                                 18.0537752,
                                                 59.3790361
                                             ],
                                             [
                                                 18.0559708,
                                                 59.3781564
                                             ],
                                             [
                                                 18.0587414,
                                                 59.3754968
                                             ],
                                             [
                                                 18.0711109,
                                                 59.3747793
                                             ],
                                             [
                                                 18.0715422,
                                                 59.3745937
                                             ],
                                             [
                                                 18.0746399,
                                                 59.3732859
                                             ],
                                             [
                                                 18.0766627,
                                                 59.3724383
                                             ],
                                             [
                                                 18.0779841,
                                                 59.3718494
                                             ],
                                             [
                                                 18.0808911,
                                                 59.3714897
                                             ],
                                             [
                                                 18.0954841,
                                                 59.3697415
                                             ],
                                             [
                                                 18.0996775,
                                                 59.367156
                                             ],
                                             [
                                                 18.1025147,
                                                 59.3654089
                                             ],
                                             [
                                                 18.1038626,
                                                 59.3723922
                                             ],
                                             [
                                                 18.1044523,
                                                 59.3744116
                                             ],
                                             [
                                                 18.0929227,
                                                 59.3788167
                                             ],
                                             [
                                                 18.087897,
                                                 59.3820148
                                             ],
                                             [
                                                 18.0917692,
                                                 59.3858851
                                             ],
                                             [
                                                 18.094256,
                                                 59.3894717
                                             ],
                                             [
                                                 18.0965879,
                                                 59.3914911
                                             ],
                                             [
                                                 18.0972825,
                                                 59.3922833
                                             ],
                                             [
                                                 18.1000509,
                                                 59.394121
                                             ],
                                             [
                                                 18.1100832,
                                                 59.3943837
                                             ],
                                             [
                                                 18.1110045,
                                                 59.3949848
                                             ],
                                             [
                                                 18.1193972,
                                                 59.3939309
                                             ],
                                             [
                                                 18.1212112,
                                                 59.4037721
                                             ],
                                             [
                                                 18.121594,
                                                 59.4056246
                                             ],
                                             [
                                                 18.1224934,
                                                 59.4099831
                                             ],
                                             [
                                                 18.1217758,
                                                 59.4121839
                                             ],
                                             [
                                                 18.0944713,
                                                 59.4154658
                                             ],
                                             [
                                                 18.0873091,
                                                 59.4208959
                                             ],
                                             [
                                                 18.0871617,
                                                 59.4209515
                                             ],
                                             [
                                                 18.0836924,
                                                 59.4228555
                                             ],
                                             [
                                                 18.0826201,
                                                 59.4234268
                                             ],
                                             [
                                                 18.0805156,
                                                 59.4229225
                                             ],
                                             [
                                                 18.0732915,
                                                 59.4233337
                                             ],
                                             [
                                                 18.0722004,
                                                 59.4233492
                                             ],
                                             [
                                                 18.0714279,
                                                 59.4233624
                                             ],
                                             [
                                                 18.0699929,
                                                 59.423392
                                             ],
                                             [
                                                 18.0677289,
                                                 59.4234236
                                             ],
                                             [
                                                 18.0675363,
                                                 59.4234296
                                             ],
                                             [
                                                 18.0663662,
                                                 59.4234526
                                             ],
                                             [
                                                 18.0656055,
                                                 59.4234753
                                             ],
                                             [
                                                 18.0655447,
                                                 59.4234759
                                             ],
                                             [
                                                 18.0648525,
                                                 59.4234839
                                             ],
                                             [
                                                 18.064214,
                                                 59.4235012
                                             ],
                                             [
                                                 18.0629522,
                                                 59.4235081
                                             ],
                                             [
                                                 18.0619943,
                                                 59.4235247
                                             ],
                                             [
                                                 18.0615874,
                                                 59.423525
                                             ],
                                             [
                                                 18.0611798,
                                                 59.4235283
                                             ],
                                             [
                                                 18.0607759,
                                                 59.4235374
                                             ],
                                             [
                                                 18.0603676,
                                                 59.4235497
                                             ],
                                             [
                                                 18.0599587,
                                                 59.4235601
                                             ],
                                             [
                                                 18.058742,
                                                 59.4235799
                                             ],
                                             [
                                                 18.058602,
                                                 59.4235837
                                             ],
                                             [
                                                 18.0583721,
                                                 59.4235862
                                             ],
                                             [
                                                 18.057225,
                                                 59.4236054
                                             ],
                                             [
                                                 18.0563395,
                                                 59.4236217
                                             ],
                                             [
                                                 18.0547523,
                                                 59.423647
                                             ],
                                             [
                                                 18.0542977,
                                                 59.4236565
                                             ],
                                             [
                                                 18.0541556,
                                                 59.4236582
                                             ],
                                             [
                                                 18.0528455,
                                                 59.4240038
                                             ],
                                             [
                                                 18.0528221,
                                                 59.4243635
                                             ],
                                             [
                                                 18.0527453,
                                                 59.4249579
                                             ],
                                             [
                                                 18.052717,
                                                 59.4253073
                                             ],
                                             [
                                                 18.0526413,
                                                 59.4260425
                                             ],
                                             [
                                                 18.0526301,
                                                 59.4261224
                                             ],
                                             [
                                                 18.0525548,
                                                 59.4268701
                                             ],
                                             [
                                                 18.0526817,
                                                 59.4275687
                                             ],
                                             [
                                                 18.052695,
                                                 59.4276178
                                             ],
                                             [
                                                 18.0527443,
                                                 59.4278751
                                             ],
                                             [
                                                 18.0528171,
                                                 59.4282833
                                             ],
                                             [
                                                 18.0529148,
                                                 59.4287829
                                             ],
                                             [
                                                 18.0528499,
                                                 59.4295896
                                             ],
                                             [
                                                 18.0528317,
                                                 59.4298732
                                             ],
                                             [
                                                 18.05273,
                                                 59.4311852
                                             ],
                                             [
                                                 18.0529049,
                                                 59.4321515
                                             ],
                                             [
                                                 18.0529943,
                                                 59.4325733
                                             ],
                                             [
                                                 18.0531358,
                                                 59.4334907
                                             ],
                                             [
                                                 18.0531569,
                                                 59.4335528
                                             ],
                                             [
                                                 18.0529985,
                                                 59.4345223
                                             ],
                                             [
                                                 18.0529586,
                                                 59.4347524
                                             ],
                                             [
                                                 18.0529166,
                                                 59.4350229
                                             ],
                                             [
                                                 18.0527633,
                                                 59.4359216
                                             ],
                                             [
                                                 18.0528214,
                                                 59.4371229
                                             ],
                                             [
                                                 18.0527989,
                                                 59.437455
                                             ],
                                             [
                                                 18.0520418,
                                                 59.4375703
                                             ],
                                             [
                                                 18.0492463,
                                                 59.4379878
                                             ],
                                             [
                                                 18.0420487,
                                                 59.4390554
                                             ],
                                             [
                                                 18.0368672,
                                                 59.4383685
                                             ],
                                             [
                                                 18.034808,
                                                 59.4380903
                                             ],
                                             [
                                                 18.0310171,
                                                 59.4375829
                                             ],
                                             [
                                                 18.0299603,
                                                 59.4374402
                                             ],
                                             [
                                                 18.0265821,
                                                 59.4369909
                                             ],
                                             [
                                                 18.0260557,
                                                 59.436923
                                             ],
                                             [
                                                 18.0254517,
                                                 59.4368407
                                             ],
                                             [
                                                 18.0239168,
                                                 59.4370753
                                             ],
                                             [
                                                 18.0225696,
                                                 59.4372869
                                             ],
                                             [
                                                 18.0208872,
                                                 59.4375415
                                             ],
                                             [
                                                 18.0192776,
                                                 59.4378208
                                             ],
                                             [
                                                 18.0179072,
                                                 59.4380642
                                             ],
                                             [
                                                 18.0149762,
                                                 59.4387208
                                             ],
                                             [
                                                 18.0129249,
                                                 59.4391737
                                             ],
                                             [
                                                 18.0118978,
                                                 59.4395588
                                             ],
                                             [
                                                 18.0100772,
                                                 59.4402344
                                             ],
                                             [
                                                 18.0086576,
                                                 59.4407651
                                             ],
                                             [
                                                 18.0069848,
                                                 59.4413844
                                             ],
                                             [
                                                 18.0049568,
                                                 59.4408753
                                             ],
                                             [
                                                 18.0014361,
                                                 59.4397957
                                             ],
                                             [
                                                 17.9991298,
                                                 59.4390654
                                             ],
                                             [
                                                 17.9984472,
                                                 59.43887
                                             ],
                                             [
                                                 17.9987094,
                                                 59.438593
                                             ],
                                             [
                                                 17.9997959,
                                                 59.4374846
                                             ],
                                             [
                                                 18.0002868,
                                                 59.4369899
                                             ],
                                             [
                                                 18.0063555,
                                                 59.4307902
                                             ],
                                             [
                                                 18.0064463,
                                                 59.4307003
                                             ],
                                             [
                                                 18.0070642,
                                                 59.4300201
                                             ],
                                             [
                                                 18.0078178,
                                                 59.4292052
                                             ],
                                             [
                                                 18.0100041,
                                                 59.4278578
                                             ],
                                             [
                                                 18.0108384,
                                                 59.4273469
                                             ],
                                             [
                                                 18.0078026,
                                                 59.4266449
                                             ],
                                             [
                                                 18.0075441,
                                                 59.4266272
                                             ],
                                             [
                                                 18.0016161,
                                                 59.4261572
                                             ],
                                             [
                                                 18.0013038,
                                                 59.4255713
                                             ],
                                             [
                                                 18.0010813,
                                                 59.4253025
                                             ],
                                             [
                                                 18.00102,
                                                 59.4252316
                                             ],
                                             [
                                                 18.0008285,
                                                 59.4250681
                                             ],
                                             [
                                                 18.0004718,
                                                 59.4248272
                                             ],
                                             [
                                                 18.0002996,
                                                 59.424719
                                             ],
                                             [
                                                 18.0000398,
                                                 59.4245674
                                             ],
                                             [
                                                 17.9999779,
                                                 59.4244011
                                             ],
                                             [
                                                 17.9998469,
                                                 59.4240148
                                             ],
                                             [
                                                 17.9997293,
                                                 59.4237664
                                             ],
                                             [
                                                 17.9996711,
                                                 59.4236937
                                             ],
                                             [
                                                 17.9995866,
                                                 59.4236296
                                             ],
                                             [
                                                 17.9992928,
                                                 59.4234343
                                             ],
                                             [
                                                 17.9991822,
                                                 59.4233635
                                             ],
                                             [
                                                 17.9990777,
                                                 59.4232829
                                             ],
                                             [
                                                 17.9989685,
                                                 59.4231822
                                             ],
                                             [
                                                 17.9983572,
                                                 59.4224717
                                             ],
                                             [
                                                 17.9980007,
                                                 59.4220537
                                             ],
                                             [
                                                 17.9974956,
                                                 59.4214713
                                             ],
                                             [
                                                 17.9972351,
                                                 59.4212523
                                             ],
                                             [
                                                 17.997189,
                                                 59.4212292
                                             ],
                                             [
                                                 17.9971287,
                                                 59.4212035
                                             ],
                                             [
                                                 17.9965402,
                                                 59.4208739
                                             ],
                                             [
                                                 17.9961423,
                                                 59.4206467
                                             ],
                                             [
                                                 17.9950697,
                                                 59.4200406
                                             ],
                                             [
                                                 17.9950284,
                                                 59.4200149
                                             ],
                                             [
                                                 17.9948815,
                                                 59.4199323
                                             ],
                                             [
                                                 17.9943315,
                                                 59.419599
                                             ],
                                             [
                                                 17.9914981,
                                                 59.4179316
                                             ]
                                         ]
                                     ]
                 }
}
